[{"OBJECT_NAME":"TIANQI-12","OBJECT_ID":"2021-039D","EPOCH":"2026-03-09T20:15:13.550976","MEAN_MOTION":15.10910107,"ECCENTRICITY":0.00035548,"INCLINATION":34.9981,"RA_OF_ASC_NODE":219.5618,"ARG_OF_PERICENTER":141.9564,"MEAN_ANOMALY":218.1398,"EPHEMERIS_TYPE":0,"CLASSIFICATION_TYPE":"U","NORAD_CAT_ID":48426,"ELEMENT_SET_NO":999,"REV_AT_EPOCH":26518,"BSTAR":0.00053797391,"MEAN_MOTION_DOT":9.139e-5,"MEAN_MOTION_DDOT":0},{"OBJECT_NAME":"STARLINK-30466","OBJECT_ID":"2023-146P","EPOCH":"2026-03-09T22:00:01.999584","MEAN_MOTION":15.06656743,"ECCENTRICITY":0.00023085,"INCLINATION":43.0004,"RA_OF_ASC_NODE":311.9092,"ARG_OF_PERICENTER":267.3679,"MEAN_ANOMALY":62.4608,"EPHEMERIS_TYPE":0,"CLASSIFICATION_TYPE":"U","NORAD_CAT_ID":57904,"ELEMENT_SET_NO":999,"REV_AT_EPOCH":572,"BSTAR":0.10518613,"MEAN_MOTION_DOT":0.01742724,"MEAN_MOTION_DDOT":0}]
